NORAD_CAT_ID,OBJECT_NAME,OBJECT_TYPE,EPOCH,MEAN_MOTION,ECCENTRICITY,INCLINATION,RA_OF_ASC_NODE,ARG_OF_PERICENTER,MEAN_ANOMALY,BSTAR,MEAN_MOTION_DOT,MEAN_MOTION_DDOT,TLE_LINE0,TLE_LINE1,TLE_LINE2,SEMIMAJOR_AXIS,PERIOD,APOGEE,PERIGEE,DECAYED
52557.0,STARLINK-3943,PAYLOAD,2022-06-25 06:00:00,15.39882661,0.0001106,53.2172,86.9813,74.4104,317.261,-0.019222,-0.00716932,0.0,0 STARLINK-3943,1 52557U 22051AA  22176.25001157 -.00716932  00000-0 -19222-1 0  9990,2 52557  53.2172  86.9813 0001106  74.4104 317.2610 15.39882661  7162,6824.593000000003,93.514,447.213,445.703,0.0
52557.0,STARLINK-3943,PAYLOAD,2022-06-25 14:00:01,15.39371672,0.0001234,53.2174,85.4135,59.152,21.1044,-0.019543,-0.00716716,0.0,0 STARLINK-3943,1 52557U 22051AA  22176.58334491 -.00716716  00000-0 -19543-1 0  9992,2 52557  53.2174  85.4135 0001234  59.1520  21.1044 15.39371672  1306,6826.103,93.545,448.811,447.126,0.0
52557.0,STARLINK-3943,PAYLOAD,2022-06-25 22:00:00,15.38862531,0.0001409999999999,53.2174,83.8499,57.5559,70.6697,-0.019905,-0.00717775,0.0,0 STARLINK-3943,1 52557U 22051AA  22176.91667824 -.00717775  00000-0 -19905-1 0  9996,2 52557  53.2174  83.8499 0001410  57.5559  70.6697 15.38862531  1302,6827.609,93.576,450.436,448.511,0.0
52557.0,STARLINK-3943,PAYLOAD,2022-06-26 06:00:00,15.38352755,0.0001369,53.2172,82.2873,64.7086,110.8736,-0.020229,-0.00717363,0.0,0 STARLINK-3943,1 52557U 22051AA  22177.25001157 -.00717363  00000-0 -20229-1 0  9999,2 52557  53.2172  82.2873 0001369  64.7086 110.8736 15.38352755  7317,6829.1169999999975,93.607,451.917,450.047,0.0
52557.0,STARLINK-3943,PAYLOAD,2022-06-26 14:00:01,15.37841836,0.0001374,53.2173,80.7231,66.6838,155.7088,-0.020535,-0.00716218,0.0,0 STARLINK-3943,1 52557U 22051AA  22177.58335648 -.00716218  00000-0 -20535-1 0  9998,2 52557  53.2173  80.7231 0001374  66.6838 155.7088 15.37841836  1304,6830.629,93.638,453.4330000000001,451.556,0.0
52557.0,STARLINK-3943,PAYLOAD,2022-06-26 22:00:00,15.37331759,0.0001434,53.2174,79.1634,61.1851,207.2743,-0.020863,-0.0071569,0.0,0 STARLINK-3943,1 52557U 22051AA  22177.91667824 -.00715690  00000-0 -20863-1 0  9996,2 52557  53.2174  79.1634 0001434  61.1851 207.2743 15.37331759  1305,6832.14,93.669,454.985,453.026,0.0
52557.0,STARLINK-3943,PAYLOAD,2022-06-27 06:00:00,15.36824375,0.0001190999999999,53.2173,77.6042,77.9121,236.0649,-0.021327,-0.00719298,0.0,0 STARLINK-3943,1 52557U 22051AA  22178.25001157 -.00719298  00000-0 -21327-1 0  9999,2 52557  53.2173  77.6042 0001191  77.9121 236.0649 15.36824375  7474,6833.644,93.7,456.323,454.695,0.0
52557.0,STARLINK-3943,PAYLOAD,2022-06-27 14:00:01,15.36310908,0.0001208,53.2174,76.0439,62.8689,296.0172,-0.021538,-0.00714783,0.0,0 STARLINK-3943,1 52557U 22051AA  22178.58334491 -.00714783  00000-0 -21538-1 0  9993,2 52557  53.2174  76.0439 0001208  62.8689 296.0172 15.36310908  1304,6835.167,93.731,457.857,456.206,0.0
52557.0,STARLINK-3943,PAYLOAD,2022-06-27 22:00:00,15.35803782,0.0001421,53.2175,74.488,48.471,354.7064,-0.022034,-0.00719039,0.0,0 STARLINK-3943,1 52557U 22051AA  22178.91667824 -.00719039  00000-0 -22034-1 0  9990,2 52557  53.2175  74.4880 0001421  48.4710 354.7064 15.35803782  1307,6836.670999999999,93.762,459.508,457.565,0.0
52557.0,STARLINK-3943,PAYLOAD,2022-06-28 06:00:00,15.3529312,0.0001202,53.2172,72.9322,67.1043,19.7537,-0.022332,-0.00717004,0.0,0 STARLINK-3943,1 52557U 22051AA  22179.25001157 -.00717004  00000-0 -22332-1 0  9990,2 52557  53.2172  72.9322 0001202  67.1043  19.7537 15.35293120  7625,6838.187,93.793,460.874,459.23,0.0
52557.0,STARLINK-3943,PAYLOAD,2022-06-28 14:00:01,15.34783354,0.0001422,53.2173,71.3755,55.7008,74.2264,-0.022765,-0.00718915,0.0,0 STARLINK-3943,1 52557U 22051AA  22179.58334491 -.00718915  00000-0 -22765-1 0  9998,2 52557  53.2173  71.3755 0001422  55.7008  74.2264 15.34783354  1301,6839.701,93.824,462.539,460.593,0.0
52557.0,STARLINK-3943,PAYLOAD,2022-06-28 22:00:00,15.34271508,0.0001626,53.2175,69.8232,49.8106,122.5714,-0.023017,-0.00715378,0.0,0 STARLINK-3943,1 52557U 22051AA  22179.91667824 -.00715378  00000-0 -23017-1 0  9995,2 52557  53.2175  69.8232 0001626  49.8106 122.5714 15.34271508  1304,6841.222,93.856,464.2,461.975,0.0
52557.0,STARLINK-3943,PAYLOAD,2022-06-29 14:00:01,15.33251829,0.0001429,53.2174,66.7178,58.3891,197.1186,-0.023804,-0.00716107,0.0,0 STARLINK-3943,1 52557U 22051AA  22180.58334491 -.00716107  00000-0 -23804-1 0  9996,2 52557  53.2174  66.7178 0001429  58.3891 197.1186 15.33251829  7833,6844.255,93.918,467.098,465.142,0.0
52557.0,STARLINK-3943,PAYLOAD,2022-06-29 22:00:00,15.32741502,0.0001445,53.2175,65.1694,55.4093,240.71400000000003,-0.024143,-0.00714763,0.0,0 STARLINK-3943,1 52557U 22051AA  22180.91667824 -.00714763  00000-0 -24143-1 0  9995,2 52557  53.2175  65.1694 0001445  55.4093 240.7140 15.32741502  1302,6845.774,93.949,468.628,466.65,0.0
52557.0,STARLINK-3943,PAYLOAD,2022-06-30 14:00:01,15.31720503,0.0001351,53.2174,62.0712,53.9151,321.605,-0.024898,-0.00713819,0.0,0 STARLINK-3943,1 52557U 22051AA  22181.58334491 -.00713819  00000-0 -24898-1 0  9998,2 52557  53.2174  62.0712 0001351  53.9151 321.6050 15.31720503  1308,6848.816,94.012,471.606,469.756,0.0
52557.0,STARLINK-3943,PAYLOAD,2022-06-30 16:00:00,15.31594733,0.0001496,53.2177,61.6845,54.1447,61.1263,-0.025059,-0.00715485,0.0,0 STARLINK-3943,1 52557U 22051AA  22181.66667824 -.00715485  00000-0 -25059-1 0  9997,2 52557  53.2177  61.6845 0001496  54.1447  61.1263 15.31594733  7991,6849.191,94.02,472.08,470.031,0.0
52557.0,STARLINK-3943,PAYLOAD,2022-06-30 22:00:00,15.31213556,0.0001599,53.2176,60.5265,43.8941,10.4017,-0.025454,-0.00717936,0.0,0 STARLINK-3943,1 52557U 22051AA  22181.91667824 -.00717936  00000-0 -25454-1 0  9997,2 52557  53.2176  60.5265 0001599  43.8941  10.4017 15.31213556  1306,6850.3269999999975,94.043,473.288,471.097,0.0
52557.0,STARLINK-3943,PAYLOAD,2022-07-01 14:00:01,15.30192977,0.0001453999999999,53.2175,57.4354,57.0563,72.9595,-0.026267,-0.00717621,0.0,0 STARLINK-3943,1 52557U 22051AA  22182.58334491 -.00717621  00000-0 -26267-1 0  9996,2 52557  53.2175  57.4354 0001454  57.0563  72.9595 15.30192977  1302,6853.373000000001,94.106,476.235,474.242,0.0
52557.0,STARLINK-3943,PAYLOAD,2022-07-01 22:00:00,15.2968209,0.0001681,53.2175,55.8943,49.0206,117.9343,-0.026602,-0.00715525,0.0,0 STARLINK-3943,1 52557U 22051AA  22182.91667824 -.00715525  00000-0 -26602-1 0  9996,2 52557  53.2175  55.8943 0001681  49.0206 117.9343 15.29682090  8187,6854.899,94.137,477.916,475.612,0.0
52557.0,STARLINK-3943,PAYLOAD,2022-07-02 14:00:01,15.28662751,0.0001415,53.2174,52.8103,64.6478,174.3495,-0.027507,-0.00725059,0.0,0 STARLINK-3943,1 52557U 22051AA  22183.58334491 -.00725059  00000-0 -27507-1 0  9999,2 52557  53.2174  52.8103 0001415  64.6478 174.3495 15.28662751  1303,6857.946,94.2,480.781,478.84,0.0
52557.0,STARLINK-3943,PAYLOAD,2022-07-02 22:00:00,15.28151955,0.0001563,53.2175,51.273,52.4515,221.6464,-0.027866,-0.00723215,0.0,0 STARLINK-3943,1 52557U 22051AA  22183.91667824 -.00723215  00000-0 -27866-1 0  9995,2 52557  53.2175  51.2730 0001563  52.4515 221.6464 15.28151955  1305,6859.474,94.231,482.411,480.267,0.0
52557.0,STARLINK-3943,PAYLOAD,2022-07-03 00:00:00,15.28026392,0.0001530999999999,53.2176,50.8886,47.6082,325.1685,-0.028104,-0.00726357,0.0,0 STARLINK-3943,1 52557U 22051AA  22184.00001157 -.00726357  00000-0 -28104-1 0  9993,2 52557  53.2176  50.8886 0001531  47.6082 325.1685 15.28026392  8356,6859.85,94.239,482.765,480.665,0.0
52557.0,STARLINK-3943,PAYLOAD,2022-07-03 14:00:01,15.27130772,0.0001296999999999,53.2175,48.1962,64.4522,278.0121,-0.028666,-0.00721177,0.0,0 STARLINK-3943,1 52557U 22051AA  22184.58334491 -.00721177  00000-0 -28666-1 0  9994,2 52557  53.2175  48.1962 0001297  64.4522 278.0121 15.27130772  1301,6862.531999999997,94.294,485.287,483.507,0.0
52557.0,STARLINK-3943,PAYLOAD,2022-07-03 22:00:00,15.26624243,0.0001416,53.2175,46.6624,55.38,320.3451,-0.029354,-0.00726785,0.0,0 STARLINK-3943,1 52557U 22051AA  22184.91667824 -.00726785  00000-0 -29354-1 0  9995,2 52557  53.2175  46.6624 0001416  55.3800 320.3451 15.26624243  1307,6864.049,94.326,486.886,484.943,0.0
52557.0,STARLINK-3943,PAYLOAD,2022-07-04 06:00:00,15.26113369,0.0001194,53.2173,45.1272,78.1026,330.274,-0.029752,-0.00725363,0.0,0 STARLINK-3943,1 52557U 22051AA  22185.25001157 -.00725363  00000-0 -29752-1 0  9997,2 52557  53.2173  45.1272 0001194  78.1026 330.2740 15.26113369  8540,6865.581,94.357,488.266,486.626,0.0
52557.0,STARLINK-3943,PAYLOAD,2022-07-04 14:00:01,15.25601847,0.0001359,53.2175,43.5927,63.4733,16.942,-0.030086,-0.00722451,0.0,0 STARLINK-3943,1 52557U 22051AA  22185.58334491 -.00722451  00000-0 -30086-1 0  9990,2 52557  53.2175  43.5927 0001359  63.4733  16.9420 15.25601847  1308,6867.116,94.389,489.914,488.048,0.0
52557.0,STARLINK-3943,PAYLOAD,2022-07-04 22:00:00,15.25094203,0.0001565999999999,53.2175,42.0627,53.3495,58.4886,-0.030733,-0.00726493,0.0,0 STARLINK-3943,1 52557U 22051AA  22185.91667824 -.00726493  00000-0 -30733-1 0  9995,2 52557  53.2175  42.0627 0001566  53.3495  58.4886 15.25094203  1301,6868.64,94.42,491.58,489.429,0.0
52557.0,STARLINK-3943,PAYLOAD,2022-07-05 08:00:01,15.24456431,0.0001324,53.2176,40.1478,81.5762,158.6824,-0.0313,-0.00725842,0.0,0 STARLINK-3943,1 52557U 22051AA  22186.33334491 -.00725842  00000-0 -31300-1 0  9991,2 52557  53.2176  40.1478 0001324  81.5762 158.6824 15.24456431  8718,6870.555,94.46,493.33,491.51,0.0
52557.0,STARLINK-3943,PAYLOAD,2022-07-05 14:00:01,15.24072957,0.0001436,53.2176,39.0002,68.2346,104.6162,-0.031558,-0.00723622,0.0,0 STARLINK-3943,1 52557U 22051AA  22186.58334491 -.00723622  00000-0 -31558-1 0  9997,2 52557  53.2176  39.0002 0001436  68.2346 104.6162 15.24072957  1303,6871.708000000001,94.484,494.559,492.586,0.0
